{"type": "FeatureCollection", "features": [ {"type": "Feature", "properties": {"norad_id": 39546, "name": "COSMOS 2251 DEB", "group": "cosmos-2251-debris", "lat": 58.292081344844334, "lon": 143.85804504233352, "alt_km": 610.8713816084428, "timestamp": "2025-12-22T23:36:21.114946+00:00", "meta": {"OBJECT_NAME": "COSMOS 2251 DEB", "OBJECT_ID": "1993-036BUC", "EPOCH": "2025-12-20T15:00:47.215872", "MEAN_MOTION": 14.92249819, "ECCENTRICITY": 0.0044301, "INCLINATION": 73.9978, "RA_OF_ASC_NODE": 120.9229, "ARG_OF_PERICENTER": 279.9237, "MEAN_ANOMALY": 79.6947, "EPHEMERIS_TYPE": 0, "CLASSIFICATION_TYPE": "U", "NORAD_CAT_ID": 39546, "ELEMENT_SET_NO": 999, "REV_AT_EPOCH": 64554, "BSTAR": 0.00091336, "MEAN_MOTION_DOT": 9.469e-05, "MEAN_MOTION_DDOT": 0}, "tle": {"line1": "1 39546U 93036BUC 25354.62554648  .00009469  00000+0  91336-3 0  9999", "line2": "2 39546  73.9978 120.9229 0044301 279.9237  79.6947 14.92249819645543"}}, "geometry": {"type": "Point", "coordinates": [143.85804504233352, 58.292081344844334]}}, {"type": "Feature", "properties": {"norad_id": 39547, "name": "COSMOS 2251 DEB", "group": "cosmos-2251-debris", "lat": 61.20504186120943, "lon": 145.93260793232608, "alt_km": 550.1318954429289, "timestamp": "2025-12-22T23:36:21.114956+00:00", "meta": {"OBJECT_NAME": "COSMOS 2251 DEB", "OBJECT_ID": "1993-036BUD", "EPOCH": "2025-12-22T07:11:53.568384", "MEAN_MOTION": 15.03945051, "ECCENTRICITY": 0.00057446, "INCLINATION": 74.002, "RA_OF_ASC_NODE": 358.7985, "ARG_OF_PERICENTER": 357.6157, "MEAN_ANOMALY": 16.6077, "EPHEMERIS_TYPE": 0, "CLASSIFICATION_TYPE": "U", "NORAD_CAT_ID": 39547, "ELEMENT_SET_NO": 999, "REV_AT_EPOCH": 64169, "BSTAR": 0.0034708224, "MEAN_MOTION_DOT": 0.00048207, "MEAN_MOTION_DDOT": 0}, "tle": {"line1": "1 39547U 93036BUD 25356.29992556  .00048207  00000+0  34708-2 0  9991", "line2": "2 39547  74.0020 358.7985 0005744 357.6157  16.6077 15.03945051641698"}}, "geometry": {"type": "Point", "coordinates": [145.93260793232608, 61.20504186120943]}}, {"type": "Feature", "properties": {"norad_id": 39553, "name": "COSMOS 2251 DEB", "group": "cosmos-2251-debris", "lat": 54.76734416697029, "lon": -23.803481620251333, "alt_km": 757.2794216554748, "timestamp": "2025-12-22T23:36:21.114966+00:00", "meta": {"OBJECT_NAME": "COSMOS 2251 DEB", "OBJECT_ID": "1993-036BUK", "EPOCH": "2025-12-19T04:26:08.787552", "MEAN_MOTION": 13.99893274, "ECCENTRICITY": 0.02023146, "INCLINATION": 74.0301, "RA_OF_ASC_NODE": 318.8543, "ARG_OF_PERICENTER": 93.0274, "MEAN_ANOMALY": 269.4029, "EPHEMERIS_TYPE": 0, "CLASSIFICATION_TYPE": "U", "NORAD_CAT_ID": 39553, "ELEMENT_SET_NO": 999, "REV_AT_EPOCH": 75707, "BSTAR": 0.00037697212, "MEAN_MOTION_DOT": 6.38e-06, "MEAN_MOTION_DDOT": 0}, "tle": {"line1": "1 39553U 93036BUK 25353.18482393  .00000638  00000+0  37697-3 0  9993", "line2": "2 39553  74.0301 318.8543 0202314  93.0274 269.4029 13.99893274757074"}}, "geometry": {"type": "Point", "coordinates": [-23.803481620251333, 54.76734416697029]}}, {"type": "Feature", "properties": {"norad_id": 39554, "name": "COSMOS 2251 DEB", "group": "cosmos-2251-debris", "lat": -49.56957995397462, "lon": 83.06838278729471, "alt_km": 538.4396773417238, "timestamp": "2025-12-22T23:36:21.114976+00:00", "meta": {"OBJECT_NAME": "COSMOS 2251 DEB", "OBJECT_ID": "1993-036BUL", "EPOCH": "2025-12-10T06:12:03.924864", "MEAN_MOTION": 15.10130993, "ECCENTRICITY": 0.0002993, "INCLINATION": 74.0187, "RA_OF_ASC_NODE": 269.7383, "ARG_OF_PERICENTER": 74.7531, "MEAN_ANOMALY": 81.5927, "EPHEMERIS_TYPE": 0, "CLASSIFICATION_TYPE": "U", "NORAD_CAT_ID": 39554, "ELEMENT_SET_NO": 999, "REV_AT_EPOCH": 64347, "BSTAR": 0.0046896, "MEAN_MOTION_DOT": 0.000773, "MEAN_MOTION_DDOT": 0}, "tle": {"line1": "1 39554U 93036BUL 25344.25837876  .00077300  00000+0  46896-2 0  9992", "line2": "2 39554  74.0187 269.7383 0002993  74.7531  81.5927 15.10130993643471"}}, "geometry": {"type": "Point", "coordinates": [83.06838278729471, -49.56957995397462]}}, {"type": "Feature", "properties": {"norad_id": 39583, "name": "COSMOS 2251 DEB", "group": "cosmos-2251-debris", "lat": -20.240691169218575, "lon": 53.634622338192514, "alt_km": 767.2082654160922, "timestamp": "2025-12-22T23:36:21.114986+00:00", "meta": {"OBJECT_NAME": "COSMOS 2251 DEB", "OBJECT_ID": "1993-036BUN", "EPOCH": "2025-12-20T09:51:33.318720", "MEAN_MOTION": 14.6056655, "ECCENTRICITY": 0.01369587, "INCLINATION": 73.9317, "RA_OF_ASC_NODE": 232.4786, "ARG_OF_PERICENTER": 344.3016, "MEAN_ANOMALY": 15.392, "EPHEMERIS_TYPE": 0, "CLASSIFICATION_TYPE": "U", "NORAD_CAT_ID": 39583, "ELEMENT_SET_NO": 999, "REV_AT_EPOCH": 61891, "BSTAR": 0.00096933589, "MEAN_MOTION_DOT": 5.347e-05, "MEAN_MOTION_DDOT": 0}, "tle": {"line1": "1 39583U 93036BUN 25354.41080230  .00005347  00000+0  96934-3 0  9998", "line2": "2 39583  73.9317 232.4786 0136958 344.3016  15.3920 14.60566550618918"}}, "geometry": {"type": "Point", "coordinates": [53.634622338192514, -20.240691169218575]}}, {"type": "Feature", "properties": {"norad_id": 39585, "name": "COSMOS 2251 DEB", "group": "cosmos-2251-debris", "lat": -39.87877734461605, "lon": -92.01150874905206, "alt_km": 696.5759015374069, "timestamp": "2025-12-22T23:36:21.114996+00:00", "meta": {"OBJECT_NAME": "COSMOS 2251 DEB", "OBJECT_ID": "1993-036BUQ", "EPOCH": "2025-12-17T13:45:47.587680", "MEAN_MOTION": 14.58681164, "ECCENTRICITY": 0.00655713, "INCLINATION": 74.0421, "RA_OF_ASC_NODE": 292.1145, "ARG_OF_PERICENTER": 51.6529, "MEAN_ANOMALY": 309.0503, "EPHEMERIS_TYPE": 0, "CLASSIFICATION_TYPE": "U", "NORAD_CAT_ID": 39585, "ELEMENT_SET_NO": 999, "REV_AT_EPOCH": 62591, "BSTAR": 0.00024435975, "MEAN_MOTION_DOT": 1.143e-05, "MEAN_MOTION_DDOT": 0}, "tle": {"line1": "1 39585U 93036BUQ 25351.57346745  .00001143  00000+0  24436-3 0  9998", "line2": "2 39585  74.0421 292.1145 0065571  51.6529 309.0503 14.58681164625913"}}, "geometry": {"type": "Point", "coordinates": [-92.01150874905206, -39.87877734461605]}}, {"type": "Feature", "properties": {"norad_id": 39586, "name": "COSMOS 2251 DEB", "group": "cosmos-2251-debris", "lat": 5.442490317350777, "lon": 28.29495543601637, "alt_km": 893.9709137094942, "timestamp": "2025-12-22T23:36:21.115006+00:00", "meta": {"OBJECT_NAME": "COSMOS 2251 DEB", "OBJECT_ID": "1993-036BUR", "EPOCH": "2025-12-15T23:50:08.053728", "MEAN_MOTION": 14.21232237, "ECCENTRICITY": 0.01008868, "INCLINATION": 74.0082, "RA_OF_ASC_NODE": 222.4068, "ARG_OF_PERICENTER": 356.2296, "MEAN_ANOMALY": 66.1426, "EPHEMERIS_TYPE": 0, "CLASSIFICATION_TYPE": "U", "NORAD_CAT_ID": 39586, "ELEMENT_SET_NO": 999, "REV_AT_EPOCH": 61018, "BSTAR": 0.00043436803, "MEAN_MOTION_DOT": 9.7e-06, "MEAN_MOTION_DDOT": 0}, "tle": {"line1": "1 39586U 93036BUR 25349.99314877  .00000970  00000+0  43437-3 0  9992", "line2": "2 39586  74.0082 222.4068 0100886 356.2296  66.1426 14.21232237610182"}}, "geometry": {"type": "Point", "coordinates": [28.29495543601637, 5.442490317350777]}}, {"type": "Feature", "properties": {"norad_id": 39591, "name": "COSMOS 2251 DEB", "group": "cosmos-2251-debris", "lat": 70.20216327974681, "lon": -4.9934696829240455, "alt_km": 756.7707842179843, "timestamp": "2025-12-22T23:36:21.115028+00:00", "meta": {"OBJECT_NAME": "COSMOS 2251 DEB", "OBJECT_ID": "1993-036BUW", "EPOCH": "2025-12-21T22:14:28.646016", "MEAN_MOTION": 14.41829313, "ECCENTRICITY": 0.00294615, "INCLINATION": 74.0193, "RA_OF_ASC_NODE": 229.7223, "ARG_OF_PERICENTER": 340.8045, "MEAN_ANOMALY": 37.2242, "EPHEMERIS_TYPE": 0, "CLASSIFICATION_TYPE": "U", "NORAD_CAT_ID": 39591, "ELEMENT_SET_NO": 999, "REV_AT_EPOCH": 61909, "BSTAR": 0.00023437621, "MEAN_MOTION_DOT": 7.43e-06, "MEAN_MOTION_DDOT": 0}, "tle": {"line1": "1 39591U 93036BUW 25355.92672044  .00000743  00000+0  23438-3 0  9998", "line2": "2 39591  74.0193 229.7223 0029461 340.8045  37.2242 14.41829313619097"}}, "geometry": {"type": "Point", "coordinates": [-4.9934696829240455, 70.20216327974681]}}, {"type": "Feature", "properties": {"norad_id": 40218, "name": "COSMOS 2251 DEB", "group": "cosmos-2251-debris", "lat": -11.733108464773027, "lon": -133.56145946325043, "alt_km": 747.559183618825, "timestamp": "2025-12-22T23:36:21.115039+00:00", "meta": {"OBJECT_NAME": "COSMOS 2251 DEB", "OBJECT_ID": "1993-036BUX", "EPOCH": "2025-12-14T10:48:31.251744", "MEAN_MOTION": 14.41597705, "ECCENTRICITY": 0.00168728, "INCLINATION": 74.0298, "RA_OF_ASC_NODE": 245.6562, "ARG_OF_PERICENTER": 328.6, "MEAN_ANOMALY": 31.4147, "EPHEMERIS_TYPE": 0, "CLASSIFICATION_TYPE": "U", "NORAD_CAT_ID": 40218, "ELEMENT_SET_NO": 999, "REV_AT_EPOCH": 58886, "BSTAR": 0.00046023204, "MEAN_MOTION_DOT": 1.474e-05, "MEAN_MOTION_DDOT": 0}, "tle": {"line1": "1 40218U 93036BUX 25348.45036171  .00001474  00000+0  46023-3 0  9998", "line2": "2 40218  74.0298 245.6562 0016872 328.6000  31.4147 14.41597705588868"}}, "geometry": {"type": "Point", "coordinates": [-133.56145946325043, -11.733108464773027]}}, {"type": "Feature", "properties": {"norad_id": 40223, "name": "COSMOS 2251 DEB", "group": "cosmos-2251-debris", "lat": 70.35638108254165, "lon": -166.20297966409447, "alt_km": 556.319605092569, "timestamp": "2025-12-22T23:36:21.115049+00:00", "meta": {"OBJECT_NAME": "COSMOS 2251 DEB", "OBJECT_ID": "1993-036BVC", "EPOCH": "2025-12-21T12:06:26.690112", "MEAN_MOTION": 15.04482505, "ECCENTRICITY": 0.00157052, "INCLINATION": 73.9371, "RA_OF_ASC_NODE": 70.6668, "ARG_OF_PERICENTER": 278.3258, "MEAN_ANOMALY": 95.1407, "EPHEMERIS_TYPE": 0, "CLASSIFICATION_TYPE": "U", "NORAD_CAT_ID": 40223, "ELEMENT_SET_NO": 999, "REV_AT_EPOCH": 59506, "BSTAR": 0.0032560994, "MEAN_MOTION_DOT": 0.00045964, "MEAN_MOTION_DDOT": 0}, "tle": {"line1": "1 40223U 93036BVC 25355.50447558  .00045964  00000+0  32561-2 0  9996", "line2": "2 40223  73.9371  70.6668 0015705 278.3258  95.1407 15.04482505595064"}}, "geometry": {"type": "Point", "coordinates": [-166.20297966409447, 70.35638108254165]}}]}